LEMUR-2-VALHALLA        
1 58900U 24022B   26194.06484742  .00010707  00000+0  26613-3 0  9994
2 58900  97.4081  44.3790 0009430  31.2242 328.9562 15.40446367136252
LEMUR-2-CAEL            
1 58903U 24022E   26194.05233544  .00011645  00000+0  27667-3 0  9990
2 58903  97.4065  45.3488 0007356  16.9202 343.2289 15.41809454136328
LEMUR-2-JOHNNYTRUONG    
1 59146U 24043BA  26193.91237260  .00035445  00000+0  39976-3 0  9996
2 59146  97.5386 347.2493 0004167 100.0253 260.1475 15.62437874132059
LEMUR-2-TOMATOKECHUP    
1 60471U 24149D   26193.77009299  .00007744  00000+0  21932-3 0  9993
2 60471  97.3802 275.8895 0003217 127.0790 233.0748 15.36552511106099
LEMUR-2-STELLA          
1 60533U 24149BT  26194.22116069  .00006342  00000+0  36958-3 0  9994
2 60533  97.6740 276.7986 0001238 110.4847 249.6517 15.12347707104439
LEMUR-2-MARHISYAM       
1 60536U 24149BW  26194.01272818  .00006657  00000+0  39418-3 0  9992
2 60536  97.6885 277.0636 0002715  73.2664 286.8864 15.11754239104385
LEMUR-2-AHMED-ASRAR     
1 60576U 24149DN  26193.75694365  .00007696  00000+0  43625-3 0  9990
2 60576  97.7013 278.9991 0000936 206.0418 154.0766 15.13277524104435
LEMUR-2-LLOYD           
1 60577U 24149DP  26194.16028014  .00006603  00000+0  41326-3 0  9992
2 60577  97.6750 275.3105 0004844  76.5693 283.6075 15.09730336104317
LEMUR-2-SQUIRRELCOMM    
1 60578U 24149DQ  26193.81389223  .00003375  00000+0  22693-3 0  9995
2 60578  97.6717 274.6477 0004208 339.2490  20.8566 15.07434731104261
LEMUR-2-SIERRINI        
1 60579U 24149DR  26194.17363868  .00007136  00000+0  42518-3 0  9990
2 60579  97.6847 276.8886 0006409  95.7209 264.4752 15.11486633104380
LEMUR-2-WILSON          
1 62694U 25009CP  26194.19427896  .00000770  00000+0  75122-4 0  9995
2 62694  97.7022 272.2031 0002174 335.9671  24.1448 14.95273431 81248
LEMUR-2-STAR-FOX        
1 62696U 25009CR  26194.19596185  .00003538  00000+0  26868-3 0  9992
2 62696  97.6916 275.6183 0002496  51.1961 308.9486 15.02826817 81462
LEMUR-2-ARIANNA         
1 62699U 25009CU  26194.19443012  .00003668  00000+0  27836-3 0  9995
2 62699  97.6857 275.3703 0002755  58.1341 302.0152 15.02827703 81461
LEMUR-2-ALISIA          
1 62706U 25009DB  26194.16723686  .00004726  00000+0  35425-3 0  9998
2 62706  97.6972 276.1644 0004039 134.8239 225.3315 15.03157072104062
LEMUR-2-ROUNDTRIPPER    
1 62711U 25009DG  26194.17385074  .00005331  00000+0  38803-3 0  9996
2 62711  97.7252 276.8201 0004411  68.0199 292.1495 15.04211677 81533
LEMUR-2-MYNAMEISJEFF    
1 62712U 25009DH  26194.17232549  .00005149  00000+0  37505-3 0  9990
2 62712  97.7301 277.2155 0003910 101.5856 258.5808 15.04203117 81532
