{"fetched_at":"2026-07-13T18:16:36.647Z","source":"https://celestrak.org/NORAD/elements/gp.php?GROUP=spire&FORMAT=JSON","constellation":"spire","records":[{"OBJECT_NAME":"LEMUR-2-VALHALLA","OBJECT_ID":"2024-022B","EPOCH":"2026-07-13T01:33:22.817088","CLASSIFICATION_TYPE":"U","MEAN_MOTION":15.40446367,"ECCENTRICITY":0.00094308,"INCLINATION":97.4081,"RA_OF_ASC_NODE":44.379,"ARG_OF_PERICENTER":31.2242,"MEAN_ANOMALY":328.9562,"EPHEMERIS_TYPE":0,"NORAD_CAT_ID":58900,"ELEMENT_SET_NO":999,"REV_AT_EPOCH":13625,"BSTAR":0.00026612508,"MEAN_MOTION_DOT":0.00010707,"MEAN_MOTION_DDOT":0},{"OBJECT_NAME":"LEMUR-2-CAEL","OBJECT_ID":"2024-022E","EPOCH":"2026-07-13T01:15:21.782016","CLASSIFICATION_TYPE":"U","MEAN_MOTION":15.41809454,"ECCENTRICITY":0.0007356,"INCLINATION":97.4065,"RA_OF_ASC_NODE":45.3488,"ARG_OF_PERICENTER":16.9202,"MEAN_ANOMALY":343.2289,"EPHEMERIS_TYPE":0,"NORAD_CAT_ID":58903,"ELEMENT_SET_NO":999,"REV_AT_EPOCH":13632,"BSTAR":0.00027666852,"MEAN_MOTION_DOT":0.00011645,"MEAN_MOTION_DDOT":0},{"OBJECT_NAME":"LEMUR-2-JOHNNYTRUONG","OBJECT_ID":"2024-043BA","EPOCH":"2026-07-12T21:53:48.992640","CLASSIFICATION_TYPE":"U","MEAN_MOTION":15.62437874,"ECCENTRICITY":0.00041678,"INCLINATION":97.5386,"RA_OF_ASC_NODE":347.2493,"ARG_OF_PERICENTER":100.0253,"MEAN_ANOMALY":260.1475,"EPHEMERIS_TYPE":0,"NORAD_CAT_ID":59146,"ELEMENT_SET_NO":999,"REV_AT_EPOCH":13205,"BSTAR":0.0003997628,"MEAN_MOTION_DOT":0.00035445,"MEAN_MOTION_DDOT":0},{"OBJECT_NAME":"LEMUR-2-TOMATOKECHUP","OBJECT_ID":"2024-149D","EPOCH":"2026-07-12T18:28:56.034336","CLASSIFICATION_TYPE":"U","MEAN_MOTION":15.36552511,"ECCENTRICITY":0.00032176,"INCLINATION":97.3802,"RA_OF_ASC_NODE":275.8895,"ARG_OF_PERICENTER":127.079,"MEAN_ANOMALY":233.0748,"EPHEMERIS_TYPE":0,"NORAD_CAT_ID":60471,"ELEMENT_SET_NO":999,"REV_AT_EPOCH":10609,"BSTAR":0.00021931543,"MEAN_MOTION_DOT":0.00007744,"MEAN_MOTION_DDOT":0},{"OBJECT_NAME":"LEMUR-2-STELLA","OBJECT_ID":"2024-149BT","EPOCH":"2026-07-13T05:18:28.283616","CLASSIFICATION_TYPE":"U","MEAN_MOTION":15.12347707,"ECCENTRICITY":0.0001238,"INCLINATION":97.674,"RA_OF_ASC_NODE":276.7986,"ARG_OF_PERICENTER":110.4847,"MEAN_ANOMALY":249.6517,"EPHEMERIS_TYPE":0,"NORAD_CAT_ID":60533,"ELEMENT_SET_NO":999,"REV_AT_EPOCH":10443,"BSTAR":0.00036958061,"MEAN_MOTION_DOT":0.00006342,"MEAN_MOTION_DDOT":0},{"OBJECT_NAME":"LEMUR-2-MARHISYAM","OBJECT_ID":"2024-149BW","EPOCH":"2026-07-13T00:18:19.714752","CLASSIFICATION_TYPE":"U","MEAN_MOTION":15.11754239,"ECCENTRICITY":0.00027158,"INCLINATION":97.6885,"RA_OF_ASC_NODE":277.0636,"ARG_OF_PERICENTER":73.2664,"MEAN_ANOMALY":286.8864,"EPHEMERIS_TYPE":0,"NORAD_CAT_ID":60536,"ELEMENT_SET_NO":999,"REV_AT_EPOCH":10438,"BSTAR":0.00039418223,"MEAN_MOTION_DOT":0.00006657,"MEAN_MOTION_DDOT":0},{"OBJECT_NAME":"LEMUR-2-AHMED-ASRAR","OBJECT_ID":"2024-149DN","EPOCH":"2026-07-12T18:09:59.931360","CLASSIFICATION_TYPE":"U","MEAN_MOTION":15.13277524,"ECCENTRICITY":0.00009363,"INCLINATION":97.7013,"RA_OF_ASC_NODE":278.9991,"ARG_OF_PERICENTER":206.0418,"MEAN_ANOMALY":154.0766,"EPHEMERIS_TYPE":0,"NORAD_CAT_ID":60576,"ELEMENT_SET_NO":999,"REV_AT_EPOCH":10443,"BSTAR":0.00043624598,"MEAN_MOTION_DOT":0.00007696,"MEAN_MOTION_DDOT":0},{"OBJECT_NAME":"LEMUR-2-LLOYD","OBJECT_ID":"2024-149DP","EPOCH":"2026-07-13T03:50:48.204096","CLASSIFICATION_TYPE":"U","MEAN_MOTION":15.09730336,"ECCENTRICITY":0.00048441,"INCLINATION":97.675,"RA_OF_ASC_NODE":275.3105,"ARG_OF_PERICENTER":76.5693,"MEAN_ANOMALY":283.6075,"EPHEMERIS_TYPE":0,"NORAD_CAT_ID":60577,"ELEMENT_SET_NO":999,"REV_AT_EPOCH":10431,"BSTAR":0.00041326369,"MEAN_MOTION_DOT":0.00006603,"MEAN_MOTION_DDOT":0},{"OBJECT_NAME":"LEMUR-2-SQUIRRELCOMM","OBJECT_ID":"2024-149DQ","EPOCH":"2026-07-12T19:32:00.288672","CLASSIFICATION_TYPE":"U","MEAN_MOTION":15.07434731,"ECCENTRICITY":0.00042086,"INCLINATION":97.6717,"RA_OF_ASC_NODE":274.6477,"ARG_OF_PERICENTER":339.249,"MEAN_ANOMALY":20.8566,"EPHEMERIS_TYPE":0,"NORAD_CAT_ID":60578,"ELEMENT_SET_NO":999,"REV_AT_EPOCH":10426,"BSTAR":0.00022692842,"MEAN_MOTION_DOT":0.00003375,"MEAN_MOTION_DDOT":0},{"OBJECT_NAME":"LEMUR-2-SIERRINI","OBJECT_ID":"2024-149DR","EPOCH":"2026-07-13T04:10:02.381952","CLASSIFICATION_TYPE":"U","MEAN_MOTION":15.11486633,"ECCENTRICITY":0.00064096,"INCLINATION":97.6847,"RA_OF_ASC_NODE":276.8886,"ARG_OF_PERICENTER":95.7209,"MEAN_ANOMALY":264.4752,"EPHEMERIS_TYPE":0,"NORAD_CAT_ID":60579,"ELEMENT_SET_NO":999,"REV_AT_EPOCH":10438,"BSTAR":0.00042518317,"MEAN_MOTION_DOT":0.00007136,"MEAN_MOTION_DDOT":0},{"OBJECT_NAME":"LEMUR-2-WILSON","OBJECT_ID":"2025-009CP","EPOCH":"2026-07-13T04:39:45.702144","CLASSIFICATION_TYPE":"U","MEAN_MOTION":14.95273431,"ECCENTRICITY":0.00021748,"INCLINATION":97.7022,"RA_OF_ASC_NODE":272.2031,"ARG_OF_PERICENTER":335.9671,"MEAN_ANOMALY":24.1448,"EPHEMERIS_TYPE":0,"NORAD_CAT_ID":62694,"ELEMENT_SET_NO":999,"REV_AT_EPOCH":8124,"BSTAR":0.000075122451,"MEAN_MOTION_DOT":0.0000077,"MEAN_MOTION_DDOT":0},{"OBJECT_NAME":"LEMUR-2-STAR-FOX","OBJECT_ID":"2025-009CR","EPOCH":"2026-07-13T04:42:11.103840","CLASSIFICATION_TYPE":"U","MEAN_MOTION":15.02826817,"ECCENTRICITY":0.0002496,"INCLINATION":97.6916,"RA_OF_ASC_NODE":275.6183,"ARG_OF_PERICENTER":51.1961,"MEAN_ANOMALY":308.9486,"EPHEMERIS_TYPE":0,"NORAD_CAT_ID":62696,"ELEMENT_SET_NO":999,"REV_AT_EPOCH":8146,"BSTAR":0.00026868134,"MEAN_MOTION_DOT":0.00003538,"MEAN_MOTION_DDOT":0},{"OBJECT_NAME":"LEMUR-2-ARIANNA","OBJECT_ID":"2025-009CU","EPOCH":"2026-07-13T04:39:58.762368","CLASSIFICATION_TYPE":"U","MEAN_MOTION":15.02827703,"ECCENTRICITY":0.00027558,"INCLINATION":97.6857,"RA_OF_ASC_NODE":275.3703,"ARG_OF_PERICENTER":58.1341,"MEAN_ANOMALY":302.0152,"EPHEMERIS_TYPE":0,"NORAD_CAT_ID":62699,"ELEMENT_SET_NO":999,"REV_AT_EPOCH":8146,"BSTAR":0.00027835635,"MEAN_MOTION_DOT":0.00003668,"MEAN_MOTION_DDOT":0},{"OBJECT_NAME":"LEMUR-2-ALISIA","OBJECT_ID":"2025-009DB","EPOCH":"2026-07-13T04:00:49.264704","CLASSIFICATION_TYPE":"U","MEAN_MOTION":15.03157072,"ECCENTRICITY":0.00040392,"INCLINATION":97.6972,"RA_OF_ASC_NODE":276.1644,"ARG_OF_PERICENTER":134.8239,"MEAN_ANOMALY":225.3315,"EPHEMERIS_TYPE":0,"NORAD_CAT_ID":62706,"ELEMENT_SET_NO":999,"REV_AT_EPOCH":10406,"BSTAR":0.00035425275,"MEAN_MOTION_DOT":0.00004726,"MEAN_MOTION_DDOT":0},{"OBJECT_NAME":"LEMUR-2-ROUNDTRIPPER","OBJECT_ID":"2025-009DG","EPOCH":"2026-07-13T04:10:20.703936","CLASSIFICATION_TYPE":"U","MEAN_MOTION":15.04211677,"ECCENTRICITY":0.00044116,"INCLINATION":97.7252,"RA_OF_ASC_NODE":276.8201,"ARG_OF_PERICENTER":68.0199,"MEAN_ANOMALY":292.1495,"EPHEMERIS_TYPE":0,"NORAD_CAT_ID":62711,"ELEMENT_SET_NO":999,"REV_AT_EPOCH":8153,"BSTAR":0.00038802888,"MEAN_MOTION_DOT":0.00005331,"MEAN_MOTION_DDOT":0},{"OBJECT_NAME":"LEMUR-2-MYNAMEISJEFF","OBJECT_ID":"2025-009DH","EPOCH":"2026-07-13T04:08:08.922336","CLASSIFICATION_TYPE":"U","MEAN_MOTION":15.04203117,"ECCENTRICITY":0.00039101,"INCLINATION":97.7301,"RA_OF_ASC_NODE":277.2155,"ARG_OF_PERICENTER":101.5856,"MEAN_ANOMALY":258.5808,"EPHEMERIS_TYPE":0,"NORAD_CAT_ID":62712,"ELEMENT_SET_NO":999,"REV_AT_EPOCH":8153,"BSTAR":0.00037504573,"MEAN_MOTION_DOT":0.00005149,"MEAN_MOTION_DDOT":0}]}
